              M50 Cartesian                         M50 Keplerian  
    -----------------------------------       --------------------------------
     X    =         452051.13                 A    =         6793696.00  meter
     Y    =       -5997028.43  meter          E    =           .0007655
     Z    =        3152602.79                 I    =           51.98062
     XDOT =       5506.891358                 Wp   =           95.23773
     YDOT =      -2152.910192  meter/sec      RA   =          118.50560  deg
     ZDOT =      -4875.517495                 TA   =           48.65211
                                              MA   =           48.58628
                                              Ha   =            223.739  n.mi
                                              Hp   =            221.217
 
              M50 Cartesian                         J2K Cartesian  
    -----------------------------------       --------------------------------
     X    =        1483107.39                 X    =          503764.41
     Y    =      -19675290.14  feet           Y    =        -5991684.51  meter
     Z    =       10343185.02                 Z    =         3154923.58
     XDOT =      18067.228865                 XDOT =        5554.239109
     YDOT =      -7063.353649  feet/sec       YDOT =       -2091.062964  meter/sec
     ZDOT =     -15995.792305                 ZDOT =       -4848.652304
 
              TDR Cartesian                         TDR Cartesian  
    -----------------------------------       --------------------------------
     X    =       -1860289.24                 X    =         -567016.16
     Y    =      -19637388.01  feet           Y    =        -5985475.86  meter
     Z    =       10354247.53                 Z    =         3155974.65
     XDOT =      15323.201337                 XDOT =        4670.511768
     YDOT =      -9837.765956  feet/sec       YDOT =       -2998.551063  meter/sec
     ZDOT =     -15873.747116                 ZDOT =       -4838.318121
  
  
    The mean element set is posted at the UTC for which position is
    just north of the next ascending node relative to the above
    vector time
 
 
    TWO LINE MEAN ELEMENT SET
  
    ISS
    1 25544U 98067A   19144.39637371  .00016717  00000-0  10270-3 0  9173
    2 25544  51.6391 119.3736 0005229 273.7398  86.3155 15.51183557 11555
  
  
    Satellite: ISS
    Catalog Number: 25544
    Epoch time:      19144.39637371   =   yrday.fracday
    Element set:     917
    Inclination:       51.6391  deg
    RA of node:       119.3736  deg
    Eccentricity:     .0005229     
    Arg of perigee:   273.7398  deg
    Mean anomaly:      86.3155  deg
    Mean motion:   15.51183557  rev/day
    Decay rate:    1.67170E-04  rev/day^2
    Epoch rev:            1155
    Checksum:              332
 
 
    Coasting Arc #19 (Orbit 1169)
    ---------------------------------------
 
    Vector Time (GMT): 2019/145/08:35:00.000
    Vector Time (MET): N/A
    Weight (LBS)     : 965081.7
 
              M50 Cartesian                         M50 Keplerian  
    -----------------------------------       --------------------------------
     X    =        -571212.69                 A    =         6795123.93  meter
     Y    =        6273392.56  meter          E    =           .0004091
     Z    =       -2540708.46                 I    =           52.00192
     XDOT =      -5259.575366                 Wp   =          344.88898
     YDOT =       1672.737182  meter/sec      RA   =          113.56908  deg
     ZDOT =       5314.636839                 TA   =          346.77350
                                              MA   =          346.78422
                                              Ha   =            223.799  n.mi
                                              Hp   =            221.176
 
              M50 Cartesian                         J2K Cartesian  
    -----------------------------------       --------------------------------
     X    =       -1874057.37                 X    =         -628979.74
     Y    =       20581996.59  feet           Y    =         6266682.13  meter
     Z    =       -8335657.67                 Z    =        -2543622.85
     XDOT =     -17255.824690                 XDOT =       -5303.705050
     YDOT =       5487.982879  feet/sec       YDOT =        1613.673627  meter/sec
     ZDOT =      17436.472569                 ZDOT =        5288.980772
 
              TDR Cartesian                         TDR Cartesian  
    -----------------------------------       --------------------------------
     X    =        1965547.25                 X    =          599098.80
     Y    =       20567868.20  feet           Y    =         6269086.23  meter
     Z    =       -8349448.20                 Z    =        -2544911.81
     XDOT =     -14580.302907                 XDOT =       -4444.076326
     YDOT =       8421.767762  feet/sec       YDOT =        2566.954814  meter/sec
     ZDOT =      17319.941090                 ZDOT =        5279.118044
  
  
    The mean element set is posted at the UTC for which position is
    just north of the next ascending node relative to the above
    vector time
 
 
    TWO LINE MEAN ELEMENT SET
  
    ISS
    1 25544U 98067A   19145.36275078  .00016717  00000-0  10270-3 0  9184
    2 25544  51.6406 114.5777 0005152 277.1533  82.9033 15.51197639 11708
  
  
    Satellite: ISS
    Catalog Number: 25544
    Epoch time:      19145.36275078   =   yrday.fracday
    Element set:     918
    Inclination:       51.6406  deg
    RA of node:       114.5777  deg
    Eccentricity:     .0005152     
    Arg of perigee:   277.1533  deg
    Mean anomaly:      82.9033  deg
    Mean motion:   15.51197639  rev/day
    Decay rate:    1.67170E-04  rev/day^2
    Epoch rev:            1170
    Checksum:              316
 
 
    Coasting Arc #20 (Orbit 1185)
    ---------------------------------------
 
    Vector Time (GMT): 2019/146/08:35:00.000
    Vector Time (MET): N/A
    Weight (LBS)     : 965081.7
 
              M50 Cartesian                         M50 Keplerian  
    -----------------------------------       --------------------------------
     X    =         652679.89                 A    =         6796453.96  meter
     Y    =       -6497425.31  meter          E    =           .0008936
     Z    =        1866953.27                 I    =           52.01635
     XDOT =       5042.991484                 Wp   =          120.12879
     YDOT =      -1124.247413  meter/sec      RA   =          108.63547  deg
     ZDOT =      -5659.827634                 TA   =           39.45995
                                              MA   =           39.39491
                                              Ha   =            223.945  n.mi
                                              Hp   =            221.193
 
              M50 Cartesian                         J2K Cartesian  
    -----------------------------------       --------------------------------
     X    =        2141338.23                 X    =          716218.82
     Y    =      -21317012.16  feet           Y    =        -6489771.49  meter
     Z    =        6125174.76                 Z    =         1870277.47
     XDOT =      16545.247650                 XDOT =        5082.680661
     YDOT =      -3688.475763  feet/sec       YDOT =       -1067.630715  meter/sec
     ZDOT =     -18568.988300                 ZDOT =       -5635.234347
 
              TDR Cartesian                         TDR Cartesian  
    -----------------------------------       --------------------------------
     X    =       -2189080.94                 X    =         -667231.87
     Y    =      -21307649.13  feet           Y    =        -6494571.46  meter
     Z    =        6140856.27                 Z    =         1871732.99
     XDOT =      14046.305598                 XDOT =        4281.313946
     YDOT =      -6777.387243  feet/sec       YDOT =       -2065.747632  meter/sec
     ZDOT =     -18457.317502                 ZDOT =       -5625.790375
  
  
    The mean element set is posted at the UTC for which position is
    just north of the next ascending node relative to the above
    vector time
 
 
    TWO LINE MEAN ELEMENT SET
  
    ISS
    1 25544U 98067A   19146.39355217  .00016717  00000-0  10270-3 0  9193
    2 25544  51.6386 109.4623 0005150 282.2021  77.8553 15.51173353 11869
  
  
    Satellite: ISS
    Catalog Number: 25544
    Epoch time:      19146.39355217   =   yrday.fracday
    Element set:     919
    Inclination:       51.6386  deg
    RA of node:       109.4623  deg
    Eccentricity:     .0005150     
    Arg of perigee:   282.2021  deg
    Mean anomaly:      77.8553  deg
    Mean motion:   15.51173353  rev/day
    Decay rate:    1.67170E-04  rev/day^2
    Epoch rev:            1186
    Checksum:              306
 
 
    Coasting Arc #21 (Orbit 1200)
    ---------------------------------------
 
    Vector Time (GMT): 2019/147/08:35:00.000
    Vector Time (MET): N/A
    Weight (LBS)     : 965081.7
 
              M50 Cartesian                         M50 Keplerian  
    -----------------------------------       --------------------------------
     X    =        -681066.35                 A    =         6797232.50  meter
     Y    =        6654995.35  meter          E    =           .0008543
     Z    =       -1172231.84                 I    =           52.02925
     XDOT =      -4867.313371                 Wp   =            4.45215
     YDOT =        538.371685  meter/sec      RA   =          103.70361  deg
     ZDOT =       5895.496304                 TA   =          342.90090
                                              MA   =          342.92967
                                              Ha   =            223.950  n.mi
                                              Hp   =            221.157
 
